{
 "type": "FeatureCollection",
 "features": [
  {
   "type": "Feature",
   "properties": {
    "osm_type": "way",
    "osm_id": 395219953,
    "name": "Visakapatnam Steel Plant",
    "operator": "Rashtriya Ispat Nigam Limited (RINL)",
    "landuse": "industrial",
    "source": "OpenStreetMap contributors",
    "licence": "ODbL 1.0"
   },
   "geometry": {
    "type": "Polygon",
    "coordinates": [
     [
      [
       83.2234833,
       17.6190979
      ],
      [
       83.2304867,
       17.6156671
      ],
      [
       83.2272554,
       17.6092751
      ],
      [
       83.2105486,
       17.6113221
      ],
      [
       83.1971064,
       17.5860362
      ],
      [
       83.1938624,
       17.5875862
      ],
      [
       83.1911051,
       17.5865993
      ],
      [
       83.1892973,
       17.5874533
      ],
      [
       83.1893027,
       17.5886652
      ],
      [
       83.1863201,
       17.5901277
      ],
      [
       83.1733864,
       17.5772001
      ],
      [
       83.1731826,
       17.5772001
      ],
      [
       83.1716618,
       17.5756224
      ],
      [
       83.1715706,
       17.5756199
      ],
      [
       83.1711549,
       17.5760187
      ],
      [
       83.1710583,
       17.5804781
      ],
      [
       83.1690359,
       17.580473
      ],
      [
       83.1675124,
       17.5788621
      ],
      [
       83.1665951,
       17.5786269
      ],
      [
       83.1659353,
       17.5783251
      ],
      [
       83.1598037,
       17.5813577
      ],
      [
       83.1610322,
       17.5863973
      ],
      [
       83.1602892,
       17.5875376
      ],
      [
       83.1607425,
       17.5920657
      ],
      [
       83.1651199,
       17.6004518
      ],
      [
       83.1572771,
       17.6041691
      ],
      [
       83.1657358,
       17.620099
      ],
      [
       83.1667453,
       17.6220184
      ],
      [
       83.1677538,
       17.6240992
      ],
      [
       83.167153,
       17.6243855
      ],
      [
       83.1669974,
       17.6246846
      ],
      [
       83.167094,
       17.6248942
      ],
      [
       83.1707284,
       17.631722
      ],
      [
       83.1715411,
       17.6332122
      ],
      [
       83.1758434,
       17.6414506
      ],
      [
       83.18205,
       17.6581257
      ],
      [
       83.181771,
       17.6619849
      ],
      [
       83.1829297,
       17.6620412
      ],
      [
       83.1836003,
       17.6586317
      ],
      [
       83.184582,
       17.6575685
      ],
      [
       83.1853545,
       17.6557998
      ],
      [
       83.186202,
       17.6468388
      ],
      [
       83.1910247,
       17.6445077
      ],
      [
       83.1910944,
       17.6443441
      ],
      [
       83.1912607,
       17.6442725
      ],
      [
       83.1912231,
       17.6441038
      ],
      [
       83.191781,
       17.6432092
      ],
      [
       83.1921512,
       17.643015
      ],
      [
       83.1919044,
       17.6424373
      ],
      [
       83.1932831,
       17.6417829
      ],
      [
       83.1920385,
       17.6396461
      ],
      [
       83.1907403,
       17.6371002
      ],
      [
       83.1916952,
       17.6353518
      ],
      [
       83.1927895,
       17.6360777
      ],
      [
       83.1929451,
       17.6358579
      ],
      [
       83.1932777,
       17.6357505
      ],
      [
       83.1932133,
       17.6356176
      ],
      [
       83.1957024,
       17.6324837
      ],
      [
       83.2234833,
       17.6190979
      ]
     ]
    ]
   }
  }
 ]
}